NAVSTAR 77 (USA 289)    
1 43873U 18109A   23306.24070622  .00000031  00000+0  00000+0 0  9993
2 43873  55.2134 130.0365 0026866 189.7239 169.8740  2.00570940 35855
